*******************************************************************************
Ephemeris / WWW_USER Mon Jul 15 19:26:14 2024 Pasadena, USA      / Horizons    
*******************************************************************************
Target body name: (2018 RA1)                      {source: JPL#6}
Center body name: Earth (399)                     {source: DE441}
Center-site name: Gemini South Obs., Cerro Pachon
*******************************************************************************
Start time      : A.D. 2019-Jan-01 23:57:00.0000 UT      
Stop  time      : A.D. 2019-Jan-02 09:36:00.0000 UT      
Step-size       : 1 minutes
*******************************************************************************
Target pole/equ : undefined
Target radii    : undefined                                                    
Center geodetic : 289.2634, -30.2406227, 2.71233  {E-lon(deg),Lat(deg),Alt(km)}
Center cylindric: 289.2634,5517.21435,-3194.81213 {E-lon(deg),Dxy(km),Dz(km)}
Center pole/equ : ITRF93                          {East-longitude positive}
Center radii    : 6378.137, 6378.137, 6356.752 km {Equator_a, b, pole_c}       
Target primary  : Sun
Vis. interferer : MOON (R_eq= 1737.400) km        {source: DE441}
Rel. light bend : Sun                             {source: DE441}
Rel. lght bnd GM: 1.3271E+11 km^3/s^2                                          
Small-body perts: Yes                             {source: SB441-N16}
Atmos refraction: NO (AIRLESS)
RA format       : HMS
Time format     : CAL 
Calendar mode   : Mixed Julian/Gregorian
RTS-only print  : NO       
EOP file        : eop.240715.p241008                                           
EOP coverage    : DATA-BASED 1962-JAN-20 TO 2024-JUL-15. PREDICTS-> 2024-OCT-07
Units conversion: 1 au= 149597870.700 km, c= 299792.458 km/s, 1 day= 86400.0 s 
Table cut-offs 1: Elevation (-90.0deg=NO ),Airmass (>38.000=NO), Daylight (YES)
Table cut-offs 2: Solar elongation (  0.0,180.0=NO ),Local Hour Angle( 0.0=NO )
Table cut-offs 3: RA/DEC angular rate (     0.0=NO )                           
*******************************************************************************
Initial IAU76/J2000 heliocentric ecliptic osculating elements (au, days, deg.):
  EPOCH=  2458369.5 ! 2018-Sep-08.00 (TDB)         Residual RMS= .21275        
   EC= .3232115344739424   QR= .7703453101153647   TP= 2458436.6763547547      
   OM= 166.2054176892707   W=  269.7217787981747   IN= 8.763099478405824       
  Equivalent ICRF heliocentric cartesian coordinates (au, au/d):
   X= 9.899686155013647E-01  Y=-2.468208982240139E-01  Z=-1.030323866474361E-01
  VX=-9.411283005844916E-04 VY= 1.717513364149167E-02 VZ= 4.613440841260365E-03
Asteroid physical parameters (km, seconds, rotational period in hours):        
   GM= n.a.                RAD= n.a.               ROTPER= n.a.                
   H= 26.4                 G= .150                 B-V= n.a.                   
                           ALBEDO= n.a.            STYP= n.a.                  
*******************************************************************************
 Date__(UT)__HR:MN     R.A._________(ICRF)_________DEC
******************************************************
$$SOE
 2019-Jan-02 08:09  m  14 19 37.340474 -17 25 59.21833
 2019-Jan-02 08:10 Am  14 19 37.463388 -17 25 59.32333
 2019-Jan-02 08:11 Am  14 19 37.586290 -17 25 59.42830
 2019-Jan-02 08:12 Am  14 19 37.709180 -17 25 59.53324
 2019-Jan-02 08:13 Am  14 19 37.832058 -17 25 59.63815
 2019-Jan-02 08:14 Am  14 19 37.954924 -17 25 59.74303
 2019-Jan-02 08:15 Am  14 19 38.077778 -17 25 59.84787
 2019-Jan-02 08:16 Am  14 19 38.200620 -17 25 59.95269
 2019-Jan-02 08:17 Am  14 19 38.323451 -17 26 00.05747
 2019-Jan-02 08:18 Am  14 19 38.446269 -17 26 00.16222
 2019-Jan-02 08:19 Am  14 19 38.569076 -17 26 00.26693
 2019-Jan-02 08:20 Am  14 19 38.691870 -17 26 00.37162
 2019-Jan-02 08:21 Am  14 19 38.814653 -17 26 00.47627
 2019-Jan-02 08:22 Am  14 19 38.937424 -17 26 00.58088
 2019-Jan-02 08:23 Am  14 19 39.060184 -17 26 00.68547
 2019-Jan-02 08:24 Am  14 19 39.182932 -17 26 00.79002
 2019-Jan-02 08:25 Am  14 19 39.305668 -17 26 00.89453
 2019-Jan-02 08:26 Am  14 19 39.428392 -17 26 00.99901
 2019-Jan-02 08:27 Am  14 19 39.551105 -17 26 01.10346
 2019-Jan-02 08:28 Am  14 19 39.673807 -17 26 01.20787
 2019-Jan-02 08:29 Am  14 19 39.796496 -17 26 01.31225
 2019-Jan-02 08:30 Am  14 19 39.919175 -17 26 01.41659
 2019-Jan-02 08:31 Am  14 19 40.041842 -17 26 01.52090
 2019-Jan-02 08:32 Am  14 19 40.164497 -17 26 01.62517
 2019-Jan-02 08:33 Am  14 19 40.287141 -17 26 01.72941
 2019-Jan-02 08:34 Am  14 19 40.409774 -17 26 01.83361
 2019-Jan-02 08:35 Am  14 19 40.532395 -17 26 01.93777
 2019-Jan-02 08:36 Am  14 19 40.655005 -17 26 02.04190
 2019-Jan-02 08:37 Am  14 19 40.777604 -17 26 02.14599
 2019-Jan-02 08:38 Am  14 19 40.900191 -17 26 02.25005
 2019-Jan-02 08:39 Am  14 19 41.022767 -17 26 02.35407
 2019-Jan-02 08:40 Am  14 19 41.145333 -17 26 02.45805
 2019-Jan-02 08:41 Am  14 19 41.267886 -17 26 02.56199
 2019-Jan-02 08:42 Am  14 19 41.390429 -17 26 02.66590
 2019-Jan-02 08:43 Am  14 19 41.512961 -17 26 02.76977
 2019-Jan-02 08:44 Am  14 19 41.635482 -17 26 02.87360
 2019-Jan-02 08:45 Nm  14 19 41.757992 -17 26 02.97739
 2019-Jan-02 08:46 Nm  14 19 41.880490 -17 26 03.08114
 2019-Jan-02 08:47 Nm  14 19 42.002978 -17 26 03.18486
 2019-Jan-02 08:48 Nm  14 19 42.125455 -17 26 03.28853
 2019-Jan-02 08:49 Nm  14 19 42.247921 -17 26 03.39217
 2019-Jan-02 08:50 Nm  14 19 42.370377 -17 26 03.49577
 2019-Jan-02 08:51 Nm  14 19 42.492821 -17 26 03.59933
 2019-Jan-02 08:52 Nm  14 19 42.615255 -17 26 03.70285
 2019-Jan-02 08:53 Nm  14 19 42.737678 -17 26 03.80633
 2019-Jan-02 08:54 Nm  14 19 42.860090 -17 26 03.90977
 2019-Jan-02 08:55 Nm  14 19 42.982492 -17 26 04.01317
 2019-Jan-02 08:56 Nm  14 19 43.104883 -17 26 04.11653
 2019-Jan-02 08:57 Nm  14 19 43.227264 -17 26 04.21985
 2019-Jan-02 08:58 Nm  14 19 43.349634 -17 26 04.32313
 2019-Jan-02 08:59 Nm  14 19 43.471993 -17 26 04.42637
 2019-Jan-02 09:00 Nm  14 19 43.594342 -17 26 04.52957
 2019-Jan-02 09:01 Nm  14 19 43.716681 -17 26 04.63272
 2019-Jan-02 09:02 Nm  14 19 43.839009 -17 26 04.73584
 2019-Jan-02 09:03 Nm  14 19 43.961327 -17 26 04.83891
 2019-Jan-02 09:04 Nm  14 19 44.083635 -17 26 04.94194
 2019-Jan-02 09:05 Nm  14 19 44.205932 -17 26 05.04493
 2019-Jan-02 09:06 Nm  14 19 44.328219 -17 26 05.14788
 2019-Jan-02 09:07 Nm  14 19 44.450496 -17 26 05.25078
 2019-Jan-02 09:08 Nm  14 19 44.572763 -17 26 05.35365
 2019-Jan-02 09:09 Nm  14 19 44.695020 -17 26 05.45647
 2019-Jan-02 09:10 Nm  14 19 44.817267 -17 26 05.55924
 2019-Jan-02 09:11 Nm  14 19 44.939503 -17 26 05.66198
 2019-Jan-02 09:12 Nm  14 19 45.061730 -17 26 05.76467
 2019-Jan-02 09:13 Nm  14 19 45.183947 -17 26 05.86731
 2019-Jan-02 09:14 Nm  14 19 45.306153 -17 26 05.96992
 2019-Jan-02 09:15 Nm  14 19 45.428350 -17 26 06.07248
 2019-Jan-02 09:16 Nm  14 19 45.550538 -17 26 06.17499
 2019-Jan-02 09:17 Nm  14 19 45.672715 -17 26 06.27746
 2019-Jan-02 09:18 Nm  14 19 45.794883 -17 26 06.37989
 2019-Jan-02 09:19 Cm  14 19 45.917040 -17 26 06.48227
 2019-Jan-02 09:20 Cm  14 19 46.039189 -17 26 06.58461
 2019-Jan-02 09:21 Cm  14 19 46.161327 -17 26 06.68691
 2019-Jan-02 09:22 Cm  14 19 46.283456 -17 26 06.78915
 2019-Jan-02 09:23 Cm  14 19 46.405576 -17 26 06.89136
 2019-Jan-02 09:24 Cm  14 19 46.527686 -17 26 06.99351
 2019-Jan-02 09:25 Cm  14 19 46.649787 -17 26 07.09563
 2019-Jan-02 09:26 Cm  14 19 46.771878 -17 26 07.19769
 2019-Jan-02 09:27 Cm  14 19 46.893960 -17 26 07.29971
 2019-Jan-02 09:28 Cm  14 19 47.016032 -17 26 07.40169
 2019-Jan-02 09:29 Cm  14 19 47.138095 -17 26 07.50362
 2019-Jan-02 09:30 Cm  14 19 47.260149 -17 26 07.60550
 2019-Jan-02 09:31 Cm  14 19 47.382194 -17 26 07.70733
 2019-Jan-02 09:32 Cm  14 19 47.504230 -17 26 07.80912
 2019-Jan-02 09:33 Cm  14 19 47.626256 -17 26 07.91086
 2019-Jan-02 09:34 Cm  14 19 47.748274 -17 26 08.01256
 2019-Jan-02 09:35 Cm  14 19 47.870282 -17 26 08.11420
 2019-Jan-02 09:36 Cm  14 19 47.992282 -17 26 08.21580
